#dP2023  2 21  0  0  0.00000000      96 __u+U ITR14 FIT  IAC
## 2250 172800.00000000   900.00000000 59996 0.0000000000000
+  130   C01C02C03C04C05C06C07C08C09C10C11C12C13C14C16C19C20
+        C21C22C23C24C25C26C27C28C29C30C32C33C34C35C36C37C38
+        C39C40C41C42C43C44C45C46C60E01E02E03E04E05E07E08E09
+        E10E11E12E13E14E15E18E19E21E24E25E26E27E30E31E33E34
+        E36G01G02G03G04G05G06G07G08G09G10G11G12G13G14G15G16
+        G17G18G19G20G21G22G23G24G25G26G27G28G29G30G31G32J02
+        J03J04J07R01R02R03R04R05R06R07R08R09R10R11R12R13R14
+        R15R16R17R18R19R20R21R22R23R24R25  0  0  0  0  0  0
++        17 17 17 17 17 11 11 13 11 11 11 12 11 11 11  9  9
++        10 10  9  9  9  9  9  9  9  9  9  9 10 10  9 14 11
++        11 11  9 10  9 11 10  9 17  4  4  4  4  4  5  5  4
++         4  4  4  0  4  4  5  4  4  4  5  5  4  4  4  5  4
++         4  4  4  4  4  4  3  4  4  4  4  4  3  5  4  4  4
++         4  4  4  4  4  4  4  4  3  4  4  4  4  4  4  4 10
++        11 11 17  8  6  6  6  6 15  6  6  6 15  6  6  7  6
++         6  6  6  6  7  7  6  6 15  6  8  0  0  0  0  0  0
%c M  cc GPS ccc cccc cccc cccc cccc ccccc ccccc ccccc ccccc
%c cc cc ccc ccc cccc cccc cccc cccc ccccc ccccc ccccc ccccc
%f  0.0000000  0.000000000  0.00000000000  0.000000000000000
%f  0.0000000  0.000000000  0.00000000000  0.000000000000000
%i    0    0    0    0      0      0      0      0         0
%i    0    0    0    0      0      0      0      0         0
/* INFORMATION & ANALYSIS CENTER (IAC)            RAPID DATA
/* S/V CLOCKS ARE ALIGNED TO GNSS TIME                      
/* G:C1WC2W R:C1PC2P E:C1XC5X C:C2IC6I J:C1CC2S             
/* PCV:IGS20_2247 OL/AL:FES2004  NONE     YN ORB:CoN CLK:CoN
*  2023 02 21 13 15  0.00000000
PC01 -34314.185900  24485.072440    868.976510    909.397587
PC02   4375.945346  41911.285455   -184.713356   -689.592023
PC03 -14813.050551  39443.966376    696.205677    256.795850
PC04 -39622.791003  14387.704561    739.205818    210.284289
PC05  21840.271855  36002.039948   -638.942144    257.751681
PC06 -12445.895764  23002.658871 -33107.094500   -191.875632
PC07 -14798.014275  39042.154214   5212.025154     81.631175
PC08   1471.739614  33484.316750  25701.929637    524.694428
PC09  -2641.170042  24135.353136 -34077.446166    765.462512
PC10  -8778.460092  39405.560527  11519.275385      6.475252
PC11 -27803.287362   2303.582795    128.880457   -108.094044
PC12 -20859.227456  -8862.091485 -16241.858752    465.404963
PC13   5585.607501  36220.322147  21245.382462    213.068691
PC14 -18108.152795   7534.725181  19851.620343    506.067581
PC16 -14439.746784  21969.903866 -32810.909335    156.797369
PC19  17451.490592 -17083.349457 -13491.091063   -894.613403
PC20  16327.700010   1088.056917 -22590.789193    713.440986
PC21  -5187.233576 -20065.902089  18717.169219   -910.165741
PC22   8621.422714 -26278.206695   3825.914875   -621.504700
PC23  -1081.887062  20951.229686 -18409.333789   -879.731976
PC24 -21060.754168 -13202.101200 -12677.278787   -382.636717
PC25 -15027.451893   6980.585719 -22465.118922     75.763604
PC26 -15289.045076 -23144.380585   2854.650615    -81.932256
PC27  13036.684490  13211.076876  20815.225908    100.105517
PC28  -6966.849361  15933.080603  21830.756594     73.006181
PC29  24320.016803  -9987.173553  -9351.713123     84.080125
PC30  26340.739857   2521.837762   8815.367569      1.085928
PC32   5287.070133  20063.946441 -18636.812150   -616.367689
PC33 -17398.967074  17051.457137  13607.890862   -872.211573
PC34 -26790.777863  -1732.979008  -7677.888587    111.056590
PC35   7653.835900 -16170.907482 -21415.436471    676.707139
PC36  15628.729572  -5911.574267  22365.813096   -610.442728
PC37  13842.601883  23875.303881  -4224.143714   -816.271496
PC38  -6134.977178  28964.999295  30112.118709     60.283669
PC39 -21021.588818  20979.126405 -29980.692053     -1.901882
PC40 -21618.192005  35907.024332   3250.559341    -15.694930
PC41  -8974.922387  26229.123810  -3130.519335   -638.614056
PC42 -15921.778270  -2581.650254  22818.006922   -824.647185
PC43 -24803.640791   9519.695428   8575.395960      8.281433
PC44 -13373.292574 -12936.105715 -20820.615723     22.366604
PC45    659.356884 -21095.504542  18235.481643    -63.283444
PC46  21053.404095  11796.301189  14038.492168    -34.975692
PC60   7293.740800  41507.223772   1303.673832     -0.534024
PE01  -7292.353120  25214.367243 -13701.104652   -600.290203
PE02   7006.538600 -25472.114038  13318.213952     22.134057
PE03  16289.919679 -21684.102272  11866.543009   -652.230847
PE04   2521.982387  18173.200154 -23221.457261    -63.127472
PE05  25962.507481 -12505.854264  -6752.261345    -93.206658
PE07 -20251.852004  -3958.297100  21226.510168    -24.599360
PE08  -2313.303411 -18142.180205  23277.387538    -39.720737
PE09  20070.015147   3963.200733 -21392.420024   -844.021921
PE10  21500.104813  17317.618425  10672.951678   -514.003734
PE11  26803.512964  12529.756795    305.212075    974.052889
PE12  13227.836533  19121.908886  18306.002038   -430.618469
PE13      0.000000      0.000000      0.000000 999999.999999
PE14  24041.922984   -187.499447  13516.475413    148.510052
PE15 -12987.066498 -19054.910986 -18556.544965     -2.650639
PE18 -17259.146783 -10890.330603 -21098.686982   -364.942783
PE19 -18457.567224  21059.368726  -9595.609692  -3180.069085
PE21 -15502.672097   8803.084147 -23638.351461   -513.452933
PE24  15371.689451  14901.710169  20432.314436  -1126.485805
PE25  15586.084920  -8416.263043  23710.793749   -599.856239
PE26 -24057.972900   1307.704027  17206.164508     24.931283
PE27 -15622.519016 -13940.054391 -20921.371005   -517.706459
PE30  -6054.488044 -28475.946259  -5308.583712  -1260.542432
PE31   6538.097905  28264.711422   5903.829412   -516.641955
PE33  -8203.827140  13830.792465  24859.055178   -451.382694
PE34   7993.595278 -13936.738614 -24861.657876    -31.256904
PE36  24440.601611   -622.224122 -16670.042523    -15.749130
PG01 -22120.978191 -14759.077848  -3238.498120    210.097061
PG02  23924.032259  11221.778451   1042.675347   -619.334744
PG03 -12430.690999 -15316.024581  17719.894951   -360.386770
PG04 -17802.542045  -5107.908977  19087.445381    -22.691291
PG05   5680.998898  25348.441228  -5389.082142   -116.767394
PG06 -10854.251984  10509.313787  21922.512847    574.829480
PG07 -24309.474469  -5471.637364  -9429.683633    236.836117
PG08  -7294.571659 -13429.601254 -21766.564165   -109.568796
PG09 -23242.464117   5238.544545  11713.221856   -214.085510
PG10  11397.107288 -15877.515969 -17660.895143    -25.649560
PG11   3071.306319  17705.995924  19579.976894   -110.282091
PG12  10676.189414  17716.640188  16435.793254   -343.030013
PG13  -1502.314354  16392.183430 -20977.963422    479.644189
PG14 -13456.299242  13067.181427 -18749.520329    -21.809266
PG15   9455.792072  12985.003634 -21597.130835     15.397841
PG16  -1036.877752 -26070.177201  -3665.918731   -519.057966
PG17 -22884.104849  13535.745720   1627.581661    701.405868
PG18  22859.907662   2322.369739 -13444.131474   -149.949952
PG19 -17463.916668  16504.948587  10776.126813    280.673626
PG20    504.773075  25906.952901   6350.824022    449.338235
PG21 -18696.460682 -15987.644845 -10424.406371    154.105272
PG22  13916.670134 -18016.380812  13973.719535    431.506110
PG23  14704.401613  -3496.321756 -21825.662668      7.133264
PG24  20771.423413  15182.451895  -7768.124372    -83.036812
PG25  14842.534094   7529.069157  20446.239155    421.959709
PG26   5393.598902 -23636.114375  10327.158726    241.656797
PG27   4551.822157 -18147.800095 -18918.482481     97.139468
PG28  12607.721750 -10146.946488  21026.537407     20.950314
PG29  22393.156337   -793.653166  14271.915363   -587.301583
PG30 -18172.849057   5607.078518 -18545.343920   -529.545161
PG31   9637.550000 -12030.183879  21486.676356   -209.841411
PG32  20690.692490 -16103.614264   3662.721910   -402.879335
PJ02 -21405.410680  28053.144694 -18473.178375     -0.970264
PJ03 -29479.722119  23484.568103  23937.152800      0.378572
PJ04 -29717.324683  29152.069505  13412.985578     94.237327
PJ07 -25413.000774  33655.721846    -37.018801     -0.003696
PR01  12835.250249   -493.608806 -22034.758929     23.448009
PR02  16859.815834 -16348.867726  -9826.609337    -23.245987
PR03  10510.818701 -21944.565960   7606.162528     72.905916
PR04  -1194.040628 -15146.793774  20516.963903    176.658094
PR05 -12446.733392   -226.560839  22282.931922    108.118607
PR06 -16226.376140  17607.991331   8820.978253    -96.558012
PR07 -10178.511156  21913.490039  -8214.126626     50.361609
PR08   1412.812195  15109.901749 -20450.769671    -69.546683
PR09  -9441.199120   6359.099733 -22812.498545    105.308376
PR10    677.039599  19214.286989 -16822.423382    -90.778732
PR11  11354.713589  22831.773524   -346.239330     -7.606635
PR12  14934.419539  11794.214856  17014.437480     25.163694
PR13  10122.745916  -4448.354847  22965.103928    -32.261822
PR14  -1683.702203 -20190.027687  15511.598626     24.364645
PR15 -11599.917049 -22704.572764   -781.660729     90.914192
PR16 -14961.584107 -12051.888659 -16794.152312     11.541617
PR17   6094.061850  -9880.466979 -22706.564863    606.792736
PR18 -12101.092150 -10079.366077 -20068.309988     67.923221
PR19 -23256.728891  -6370.914938  -8322.971924   -222.697150
PR20 -22262.324735   2853.360507  12178.131765    -88.112524
PR21  -4243.690436  10060.346089  23053.902222   -375.030976
PR22  12433.674988  10766.209639  19518.686043     71.911801
PR23  24947.657601   3898.267160   3572.496707    -73.409622
PR24  21801.669172  -4089.185084 -12581.845304    148.451740
PR25  -6867.109811   9831.356853  22518.231913     55.719293
EOF
